ONEWEB-0678             
1 56714U 23068E   23299.83016863  .00014762  00000+0  39036-1 0  9993
2 56714  87.8956  91.1454 0002012  89.1145 271.0216 13.15685877 22492
ONEWEB-0679             
1 56715U 23068F   23299.84566634  .00002222  00000+0  29905-3 0  9995
2 56715  86.7207  75.1152 0016165  32.3061 327.9146 14.78694557 23699
ONEWEB-0680             
1 56716U 23068G   23299.66667824 -.01118297  00000+0 -81369+0 0  9990
2 56716  87.3597  77.4513 0015025  43.0653 278.6700 13.99882047  5632
ONEWEB-0681             
1 56717U 23068H   23299.66667824 -.00372340  00000+0 -27659+0 0  9993
2 56717  87.3639  77.5723 0015256  41.5056 147.7548 13.97373389  5458
ONEWEB-0682             
1 56718U 23068J   23299.83787916  .00000052  00000+0  86135-4 0  9993
2 56718  88.0989  90.9576 0001651  95.9343 264.1983 13.28745798 22622
ONEWEB-0683             
1 56719U 23068K   23299.90317771  .00000106  00000+0  20475-3 0  9994
2 56719  88.1015  90.9189 0001502 123.8800 236.2481 13.28499929 22601
ONEWEB-0684             
1 56720U 23068L   23299.88256064 -.00018061  00000+0 -48251-1 0  9991
2 56720  87.8982  91.2168 0001202 107.8861 252.2401 13.15340665 22461
ONEWEB-0686             
1 56721U 23068M   23299.87435319  .00002433  00000+0  33004-3 0  9999
2 56721  86.7183  75.0781 0015491  34.8513 325.3719 14.78406669 23699
